Moon;Jupiter_y_effect_start_km_s2;7.668712300410918e-15;1.528628518967139e-14;7.617572889260473e-15;-3.7576470334797905e-15;2.67126445235621e-14;24
Moon;Saturn_y_effect_start_km_s2;2.8383187981773154e-17;2.9035889248919116e-17;6.52701267145962e-19;2.740413608105421e-17;3.001494114963806e-17;42
Moon;Uranus_y_effect_start_km_s2;7.574042145042393e-07;2.185481830840976e-06;1.4280776163367365e-06;-1.3847122100008655e-06;4.327598255346081e-06;0
Moon;Neptune_y_effect_start_km_s2;1.070422773535965e-11;2.3430749112790338e-11;1.2726521377430688e-11;-8.385554330786383e-12;4.252053117893637e-11;0
Moon;Pluto_y_effect_start_km_s2;-3.473324889470978e-10;3.5645287254000935e-10;7.037853614871071e-10;-1.4030105311777583e-09;1.41213091477067e-09;47
Moon;Sun_z_effect_start_km_s2;1.887552895608273e-13;1.2672834098795986e-12;1.0785281203187712e-12;-1.4290368909173294e-12;2.8850755903577555e-12;0
Moon;mercury_z_effect_start_km_s2;-4.3709610508304005e-12;4.380430514985498e-12;8.7513915658159e-12;-1.749804839955425e-11;1.750751786370935e-11;47
Moon;Venus_z_effect_start_km_s2;7.107410708491476e-12;2.5681651458313463e-11;1.857424074982199e-11;-2.075395041624151e-11;5.3543012583046446e-11;0
Moon;Earth_z_effect_start_km_s2;7.780677125530338e-13;1.1046573883246288e-12;3.2658967577159496e-13;2.881831988956414e-13;1.5945419019820212e-12;0
Moon;mars_z_effect_start_km_s2;6.803845985935079e-15;1.6009576052701175e-14;9.205730066766096e-15;-7.004749114214065e-15;2.981817115285032e-14;0
Moon;Moon_z_effect_start_km_s2;8.370697230852802e-15;1.1212071856563534e-14;2.841374625710732e-15;4.108635292286704e-15;1.5474133795129632e-14;0
Moon;Jupiter_z_effect_start_km_s2;2.1543588947788373e-18;2.276609138395172e-18;1.222502436163347e-19;1.9709835293543352e-18;2.459984503819674e-18;0
Moon;Saturn_z_effect_start_km_s2;5.957291145781054e-06;5.970499356173321e-06;1.3208210392266956e-08;5.937478830192653e-06;5.990311671761721e-06;47
Moon;Uranus_z_effect_start_km_s2;1.3564185001769348e-10;1.8378468011185286e-10;4.8142830094159384e-11;6.34276048764544e-11;2.5599892525309195e-10;47
Moon;Neptune_z_effect_start_km_s2;2.5329824284566854e-06;2.5395514999236807e-06;6.569071466995314e-09;2.5231288212561926e-06;2.549405107124174e-06;56
Moon;Pluto_z_effect_start_km_s2;1.3693382779765524e-12;1.742801694559627e-12;3.7346341658307463e-13;8.091431531019404e-13;2.302996819434239e-12;47
Moon;Sun_effect_end_km_s2;0.0;0.0;0.0;0.0;0.0;0
Moon;Mercury_effect_end_km_s2;2.0028799699440636e-10;2.004167891724091e-10;1.287921780027322e-13;2.0009480872740227e-10;2.006099774394132e-10;56
Moon;Venus_effect_end_km_s2;1.5116447395207092e-11;1.70789538497676e-11;1.9625064545605083e-12;1.217268771336633e-11;2.0022713531608363e-11;46
Moon;Earth_effect_end_km_s2;6.390083067044763e-13;6.595691398320278e-13;2.0560833127551498e-14;6.081670570131491e-13;6.904103895233551e-13;46
Moon;Mars_effect_end_km_s2;3.201912344483138e-13;3.3133051710050034e-13;1.1139282652186532e-14;3.03482310470034e-13;3.4803944107878014e-13;46
Moon;Moon_effect_end_km_s2;3.418265957567452e-17;3.457004345323067e-17;3.873838775561473e-19;3.36015837593403e-17;3.515111926956489e-17;47
Moon;Jupiter_effect_end_km_s2;-5.968675724957384e-06;-3.0866327724531276e-06;2.8820429525042566e-06;-1.0291740153713769e-05;1.236431656303257e-06;46
Moon;Saturn_effect_end_km_s2;-1.8142080996349801e-10;-1.3084366401470074e-10;5.0577145948797276e-11;-2.5728652888669394e-10;-5.497794509150482e-11;47
Moon;Uranus_effect_end_km_s2;-2.5347444157874995e-07;-1.865582813705585e-07;6.691616020819145e-08;-3.5384868189103714e-07;-8.618404105827133e-08;56
Moon;Neptune_effect_end_km_s2;5.036472309295995e-13;6.023901325721778e-13;9.874290164257834e-14;3.5553287846573197e-13;7.505044850360453e-13;47
Moon;Pluto_effect_end_km_s2;0.0;0.0;0.0;0.0;0.0;0
Moon;Sun_x_effect_end_km_s2;-5.4603364222442044e-11;-2.0844380053140193e-11;3.375898416930185e-11;-1.0524184047639481e-10;2.979409620081258e-11;47
Moon;mercury_x_effect_end_km_s2;-1.6977864895003607e-11;-1.4993510375577992e-11;1.9843545194256152e-12;-1.995439667414203e-11;-1.2016978596439569e-11;46
Moon;Venus_x_effect_end_km_s2;-3.7575404692163226e-13;-3.6909285240381006e-13;6.661194517822201e-15;-3.8574583869836556e-13;-3.5910106062707676e-13;47
Moon;Earth_x_effect_end_km_s2;-3.312272896565781e-13;-3.200921543269558e-13;1.1135135329622275e-14;-3.479299926510115e-13;-3.033894513325224e-13;46
Moon;mars_x_effect_end_km_s2;-1.8599760048615334e-17;-1.8478117395338792e-17;1.2164265327654233e-19;-1.8782224028530146e-17;-1.8295653415423977e-17;1
Moon;Moon_x_effect_end_km_s2;-1.4754893537185106e-07;3.772178182759957e-07;5.247667536478467e-07;-9.346990658436211e-07;1.1643679487477658e-06;0
Moon;Jupiter_x_effect_end_km_s2;-1.1088907838908452e-11;-8.485026196815102e-12;2.60388164209335e-12;-1.4994730302048476e-11;-4.579203733675077e-12;56
Moon;Saturn_x_effect_end_km_s2;-2.521856148298547e-06;-2.320313130459639e-06;2.0154301783890797e-07;-2.824170675056909e-06;-2.0179986037012773e-06;17
Moon;Uranus_x_effect_end_km_s2;-1.632952787688956e-12;-1.1461817693060195e-12;4.867710183829365e-13;-2.363109315263361e-12;-4.1602524173161476e-13;47
Moon;Neptune_x_effect_end_km_s2;0.0;0.0;0.0;0.0;0.0;0
Moon;Pluto_x_effect_end_km_s2;-1.9283151788449046e-10;-1.9111780998154707e-10;1.713707902943391e-12;-1.9540207973890554e-10;-1.8854724812713197e-10;56
Moon;Sun_y_effect_end_km_s2;1.5696926802337437e-12;1.8559710990993878e-12;2.862784188656441e-13;1.1402750519352775e-12;2.285388727397854e-12;47
Moon;mercury_y_effect_end_km_s2;-5.454905885290304e-13;-5.168501434219789e-13;2.864044510705151e-14;-5.884512561896076e-13;-4.738894757614016e-13;46
Moon;Venus_y_effect_end_km_s2;2.1074220950618785e-15;3.697878972005395e-15;1.5904568769435166e-15;-2.782632203533964e-16;6.08356428742067e-15;47
Moon;Earth_y_effect_end_km_s2;2.8606749993776927e-17;2.907307908738174e-17;4.663290936048161e-19;2.79072563533697e-17;2.9772572727788967e-17;47
Moon;Mars_y_effect_end_km_s2;-1.4014425182629912e-09;-1.4014425182629912e-09;0.0;-1.4014425182629912e-09;-1.4014425182629912e-09;67
Moon;Moon_y_effect_end_km_s2;-2.7209088168195383e-11;-1.9755124436015235e-11;7.453963732180148e-12;-3.83900337664656e-11;-8.574178837745013e-12;47
Moon;Jupiter_y_effect_end_km_s2;-2.3400725566848482e-07;-2.225068323955883e-07;1.1500423272896509e-08;-2.512578905778296e-07;-2.0525619748624355e-07;17
Moon;Saturn_y_effect_end_km_s2;-8.915754549363168e-14;-6.505269916724366e-14;2.4104846326388023e-14;-1.2531481498321372e-13;-2.8895429677661625e-14;47
Moon;Uranus_y_effect_end_km_s2;0.0;0.0;0.0;0.0;0.0;0
Moon;Neptune_y_effect_end_km_s2;8.077261279031432e-13;1.1694905440502349e-12;3.617644161470917e-13;2.6507950368250563e-13;1.7121371682708724e-12;47
Moon;Pluto_y_effect_end_km_s2;5.06951426476206e-13;6.318316157136047e-13;1.2488018923739874e-13;3.1963114262010786e-13;8.191518995697028e-13;46
Moon;Sun_z_effect_end_km_s2;2.538011823797976e-15;2.5763984148757068e-15;3.8386591077730765e-17;2.48043193718138e-15;2.633978301492303e-15;47
Moon;Mercury_z_effect_end_km_s2;7.054434560742129e-15;7.479297513746211e-15;4.2486295300408155e-16;6.417140131236007e-15;8.116591943252334e-15;46
Neptune;tof_days_d;1807.699312331432;1955.0;147.3006876685679;1586.7482808285804;2175.951031502852;0
Neptune;delta_v_km_s;44.52122558465812;46.251714515565716;1.7304889309075975;41.92549218829672;48.84744791192711;6
Neptune;r1_x_geocentric_km;-2971.976916880792;3424.766755680164;6396.743672560956;-12567.092425722227;13019.882264521599;0
Neptune;r1_y_geocentric_km;-2471.6808261627025;4478.547870471518;6950.22869663422;-12897.023871114032;14903.890915422846;0
Neptune;r1_z_geocentric_km;-4622.548607430634;4368.70319217583;8991.251799606463;-18109.42630684033;17855.580891585523;0
Neptune;orbit_altitude_km;221.6814059284208;1534.5650170206911;1312.8836110922703;-1747.6440107099845;3503.8904336590967;0
Neptune;semi_major_axis_km;6599.8180059284205;7912.701617020691;1312.8836110922703;4630.4925892900155;9882.027033659097;0
Neptune;eccentricity;0.0229904525610989;0.0671815483836334;0.0441910958225345;-0.04329619117270285;0.13346819211743516;0
Neptune;arg_periapsis_deg;110.48131135661916;185.14081081677588;74.65949946015672;-1.5079378336159266;297.13006000701097;0
Neptune;raan_deg;78.54289576498485;285.27599025433125;206.7330944893464;-231.55674596903475;595.3756319883508;0
Neptune;inclination_deg;94.826486673908;125.0997974245454;30.273310750637407;49.41652054795188;170.5097635505015;24
Neptune;mean_anomaly_deg;123.46848738320313;268.4177870460064;144.9492996628033;-93.95546211100182;485.8417365402114;0
Neptune;eccentric_anomaly_deg;124.24980313295796;267.22395854921245;142.9741554162545;-90.21142999142378;481.6851916735942;0
Neptune;true_anomaly_deg;125.02754923147648;266.0306461883597;141.0030969568832;-86.47709620384833;477.53529162368454;0
Neptune;r1_x_km;-87377765.88361472;-53906327.00250285;33471438.881111868;-137584924.2052825;-3699168.680835046;0
Neptune;r1_y_km;-131043376.10158885;-114455153.36661068;16588222.73497817;-155925710.20405608;-89572819.26414342;0
Neptune;r1_z_km;-56778437.43919107;-49583581.686906494;7194855.752284579;-67570721.06761794;-38791298.05847962;0
Neptune;v1_x_km_s;23.930955329219508;27.43581717974856;3.5048618505290534;18.673662553425928;32.69310995554214;0
Neptune;v1_y_km_s;-15.7671339069327;-9.689545962096789;6.077587944835912;-24.883515824186567;-0.5731640448429207;0
Neptune;v1_z_km_s;-6.835333186688511;-4.199978004424316;2.6353551822641954;-10.788365960084803;-0.24694523102802268;0
Neptune;v1_magnitude_km_s;29.398149270146583;29.46209283776853;0.06394356762194775;29.30223391871366;29.558008189201452;12
Neptune;r2_x_km;4379778249.083246;4386693646.767709;6915397.684462547;4369405152.556553;4397066743.294403;4
Neptune;r2_y_km;830173060.515179;864962843.1782528;34789782.66307378;777988386.5205684;917147517.1728635;4
Neptune;r2_z_km;-118749035.56315777;-118192111.42276658;556924.1403911859;-119584421.77374455;-117356725.21217981;4
